0 CZ-4 DEB
1 27678U 99057MS  13284.06248115  .00000156  00000-0  70625-4 0  3692
2 27678 098.4857 222.1693 0110087 317.6010 041.6800 14.31736909593989
0 CZ-4 DEB
1 27678U 99057MS  13286.08913341  .00000161  00000-0  72056-4 0  3704
2 27678 098.4860 224.1517 0110203 311.5160 047.6621 14.31737941594276
0 CZ-4 DEB
1 27678U 99057MS  13289.02428695  .00000172  00000-0  76132-4 0  3716
2 27678 098.4852 227.0181 0110543 302.6789 056.3826 14.31739776594699
0 CZ-4 DEB
1 27678U 99057MS  13291.05094160  .00000184  00000-0  80273-4 0  3723
2 27678 098.4854 229.0007 0110559 296.6977 062.3061 14.31741207594980
0 CZ-4 DEB
1 27678U 99057MS  13293.07759505  .00000191  00000-0  82861-4 0  3732
2 27678 098.4855 230.9817 0110674 290.7371 068.2048 14.31742475595273
0 CZ-4 DEB
1 27678U 99057MS  13295.66332676  .00000211  00000-0  89678-4 0  3742
2 27678 098.4856 233.5116 0110136 283.4010 075.4925 14.31744434595649
